ONEWEB-0598             
1 55154U 23004Q   26160.07280643  .00000545  00000+0  15029-2 0  9996
2 55154  87.8893  22.6840 0001390 106.7534 253.3746 13.11416877164837
ONEWEB-0599             
1 55155U 23004R   26160.12754361  .00000048  00000+0  89249-4 0  9991
2 55155  87.9137   7.4680 0001641  84.0600 276.0718 13.17648015166429
ONEWEB-0614             
1 55156U 23004S   26159.99141832  .00000626  00000+0  17315-2 0  9993
2 55156  87.8893  22.7092 0002046  82.6309 277.5052 13.11418432164769
ONEWEB-0616             
1 55157U 23004T   26160.09379953  .00000048  00000+0  90633-4 0  9998
2 55157  87.9139   7.4780 0001202  60.1759 299.9492 13.17648153166636
ONEWEB-0617             
1 55158U 23004U   26160.05585188  .00000307  00000+0  83047-3 0  9992
2 55158  87.8898  22.6870 0002234  87.5910 272.5474 13.11418882164795
ONEWEB-0618             
1 55159U 23004V   26160.32099418  .00003729  00000+0  20876-3 0  9991
2 55159  86.9107 180.8280 0010600 335.1184  24.9543 15.13086104181070
ONEWEB-0619             
1 55160U 23004W   26160.12586358 -.00000019  00000+0 -81173-4 0  9994
2 55160  87.9149   7.4517 0002092  75.9276 284.2089 13.17648269166531
ONEWEB-0620             
1 55161U 23004X   26160.12704742  .00000081  00000+0  19350-3 0  9998
2 55161  87.8895  22.6820 0001804  92.8206 267.3129 13.11420187164778
ONEWEB-0621             
1 55162U 23004Y   26160.07788852  .00000444  00000+0  12181-2 0  9994
2 55162  87.8902  22.6795 0002036  82.4999 277.6361 13.11415839164748
ONEWEB-0622             
1 55163U 23004Z   26160.08297664  .00000275  00000+0  73882-3 0  9990
2 55163  87.8904  22.6809 0002471  93.9333 266.2077 13.11415269164733
ONEWEB-0623             
1 55164U 23004AA  26160.04485975  .00000024  00000+0  27646-4 0  9991
2 55164  87.9137   7.4988 0002613  82.3690 277.7739 13.17648976166517
ONEWEB-0624             
1 55165U 23004AB  26160.04052924 -.00000003  00000+0 -43894-4 0  9998
2 55165  87.8945 352.2074 0001902  87.6379 272.4968 13.12928576167006
ONEWEB-0625             
1 55166U 23004AC  26160.11067653  .00000002  00000+0 -29044-4 0  9991
2 55166  87.9139   7.4812 0001736  82.5948 277.5381 13.17648653166513
ONEWEB-0626             
1 55167U 23004AD  26160.10055558  .00000104  00000+0  23594-3 0  9997
2 55167  87.9138   7.4829 0001683  99.8218 260.3104 13.17649262166513
ONEWEB-0627             
1 55168U 23004AE  26160.08872597 -.00000004  00000+0 -44251-4 0  9990
2 55168  87.9137   7.4858 0002351  83.6652 276.4748 13.17647440166519
ONEWEB-0628             
1 55169U 23004AF  26160.24764992 -.00000374  00000+0 -10749-2 0  9991
2 55169  87.8947 352.2323 0002473  82.0479 278.0930 13.12443857166995
